[{"OBJECT_NAME":"STARLINK-5360","OBJECT_ID":"2022-177AC","EPOCH":"2026-03-09T22:00:01.999584","MEAN_MOTION":15.18143552,"ECCENTRICITY":0.00022076,"INCLINATION":43.001,"RA_OF_ASC_NODE":130.9365,"ARG_OF_PERICENTER":272.5411,"MEAN_ANOMALY":66.9957,"EPHEMERIS_TYPE":0,"CLASSIFICATION_TYPE":"U","NORAD_CAT_ID":54846,"ELEMENT_SET_NO":999,"REV_AT_EPOCH":573,"BSTAR":0.05662677,"MEAN_MOTION_DOT":0.01273882,"MEAN_MOTION_DDOT":0},{"OBJECT_NAME":"YAOGAN-43 01B","OBJECT_ID":"2024-148B","EPOCH":"2026-03-10T00:03:57.287232","MEAN_MOTION":15.33324462,"ECCENTRICITY":0.00075223,"INCLINATION":34.9931,"RA_OF_ASC_NODE":49.0936,"ARG_OF_PERICENTER":3.3114,"MEAN_ANOMALY":356.7653,"EPHEMERIS_TYPE":0,"CLASSIFICATION_TYPE":"U","NORAD_CAT_ID":60459,"ELEMENT_SET_NO":999,"REV_AT_EPOCH":8718,"BSTAR":0.00049972886,"MEAN_MOTION_DOT":0.00016531,"MEAN_MOTION_DDOT":0}]
